{"fetched_at":"2026-07-14T17:40:48.257Z","source":"https://celestrak.org/NORAD/elements/gp.php?NAME=HULIANWANG&FORMAT=JSON","constellation":"guowang","records":[{"OBJECT_NAME":"HULIANWANG DIGUI-124","OBJECT_ID":"2025-295F","EPOCH":"2026-07-13T10:15:49.487904","CLASSIFICATION_TYPE":"U","MEAN_MOTION":13.29328973,"ECCENTRICITY":0.0001133,"INCLINATION":50.0003,"RA_OF_ASC_NODE":291.2309,"ARG_OF_PERICENTER":183.9332,"MEAN_ANOMALY":176.1531,"EPHEMERIS_TYPE":0,"NORAD_CAT_ID":67064,"ELEMENT_SET_NO":999,"REV_AT_EPOCH":2899,"BSTAR":0.000058632601,"MEAN_MOTION_DOT":-9.7e-7,"MEAN_MOTION_DDOT":0},{"OBJECT_NAME":"HULIANWANG DIGUI-125","OBJECT_ID":"2025-295G","EPOCH":"2026-07-13T11:51:57.651264","CLASSIFICATION_TYPE":"U","MEAN_MOTION":13.29329608,"ECCENTRICITY":0.00010919,"INCLINATION":49.9997,"RA_OF_ASC_NODE":290.9015,"ARG_OF_PERICENTER":183.4165,"MEAN_ANOMALY":176.67,"EPHEMERIS_TYPE":0,"NORAD_CAT_ID":67065,"ELEMENT_SET_NO":999,"REV_AT_EPOCH":2900,"BSTAR":0.000065599402,"MEAN_MOTION_DOT":-9.4e-7,"MEAN_MOTION_DDOT":0},{"OBJECT_NAME":"HULIANWANG DIGUI-126","OBJECT_ID":"2025-295H","EPOCH":"2026-07-13T15:16:22.825920","CLASSIFICATION_TYPE":"U","MEAN_MOTION":13.29322712,"ECCENTRICITY":0.0001119,"INCLINATION":50.0008,"RA_OF_ASC_NODE":290.3225,"ARG_OF_PERICENTER":179.5708,"MEAN_ANOMALY":180.5165,"EPHEMERIS_TYPE":0,"NORAD_CAT_ID":67066,"ELEMENT_SET_NO":999,"REV_AT_EPOCH":2902,"BSTAR":0.000068027,"MEAN_MOTION_DOT":-9.2e-7,"MEAN_MOTION_DDOT":0},{"OBJECT_NAME":"HULIANWANG DIGUI-127","OBJECT_ID":"2025-295J","EPOCH":"2026-07-13T15:04:18.187392","CLASSIFICATION_TYPE":"U","MEAN_MOTION":13.29330783,"ECCENTRICITY":0.0001104,"INCLINATION":50.0012,"RA_OF_ASC_NODE":290.313,"ARG_OF_PERICENTER":182.6774,"MEAN_ANOMALY":177.4092,"EPHEMERIS_TYPE":0,"NORAD_CAT_ID":67067,"ELEMENT_SET_NO":999,"REV_AT_EPOCH":2902,"BSTAR":0.0000946,"MEAN_MOTION_DOT":-8e-7,"MEAN_MOTION_DDOT":0},{"OBJECT_NAME":"HULIANWANG DIGUI-128","OBJECT_ID":"2025-311A","EPOCH":"2026-07-13T19:12:37.197792","CLASSIFICATION_TYPE":"U","MEAN_MOTION":13.29323755,"ECCENTRICITY":0.0000944,"INCLINATION":50.0096,"RA_OF_ASC_NODE":20.1084,"ARG_OF_PERICENTER":69.9263,"MEAN_ANOMALY":290.171,"EPHEMERIS_TYPE":0,"NORAD_CAT_ID":67236,"ELEMENT_SET_NO":999,"REV_AT_EPOCH":2688,"BSTAR":0.000067774,"MEAN_MOTION_DOT":-9.3e-7,"MEAN_MOTION_DDOT":0},{"OBJECT_NAME":"HULIANWANG DIGUI-129","OBJECT_ID":"2025-311B","EPOCH":"2026-07-13T21:12:48.374208","CLASSIFICATION_TYPE":"U","MEAN_MOTION":13.29324879,"ECCENTRICITY":0.0000892,"INCLINATION":50.0087,"RA_OF_ASC_NODE":19.8638,"ARG_OF_PERICENTER":70.8599,"MEAN_ANOMALY":289.237,"EPHEMERIS_TYPE":0,"NORAD_CAT_ID":67237,"ELEMENT_SET_NO":999,"REV_AT_EPOCH":2689,"BSTAR":0.000036047,"MEAN_MOTION_DOT":-0.00000107,"MEAN_MOTION_DDOT":0},{"OBJECT_NAME":"HULIANWANG DIGUI-130","OBJECT_ID":"2025-311C","EPOCH":"2026-07-13T20:36:48.255840","CLASSIFICATION_TYPE":"U","MEAN_MOTION":13.29323631,"ECCENTRICITY":0.0000975,"INCLINATION":50.0067,"RA_OF_ASC_NODE":20.3557,"ARG_OF_PERICENTER":69.5741,"MEAN_ANOMALY":290.5236,"EPHEMERIS_TYPE":0,"NORAD_CAT_ID":67238,"ELEMENT_SET_NO":999,"REV_AT_EPOCH":2688,"BSTAR":0.000036921,"MEAN_MOTION_DOT":-0.00000107,"MEAN_MOTION_DDOT":0},{"OBJECT_NAME":"HULIANWANG DIGUI-131","OBJECT_ID":"2025-311D","EPOCH":"2026-07-13T19:00:35.548704","CLASSIFICATION_TYPE":"U","MEAN_MOTION":13.29323332,"ECCENTRICITY":0.0000999,"INCLINATION":50.0065,"RA_OF_ASC_NODE":20.6609,"ARG_OF_PERICENTER":68.2761,"MEAN_ANOMALY":291.8218,"EPHEMERIS_TYPE":0,"NORAD_CAT_ID":67239,"ELEMENT_SET_NO":999,"REV_AT_EPOCH":2687,"BSTAR":0.000025315,"MEAN_MOTION_DOT":-0.00000112,"MEAN_MOTION_DDOT":0},{"OBJECT_NAME":"HULIANWANG DIGUI-132","OBJECT_ID":"2025-311E","EPOCH":"2026-07-13T18:24:27.535104","CLASSIFICATION_TYPE":"U","MEAN_MOTION":13.29324179,"ECCENTRICITY":0.0000936,"INCLINATION":50.0076,"RA_OF_ASC_NODE":20.5518,"ARG_OF_PERICENTER":67.138,"MEAN_ANOMALY":292.9591,"EPHEMERIS_TYPE":0,"NORAD_CAT_ID":67240,"ELEMENT_SET_NO":999,"REV_AT_EPOCH":2687,"BSTAR":0.0000363,"MEAN_MOTION_DOT":-0.00000107,"MEAN_MOTION_DDOT":0},{"OBJECT_NAME":"HULIANWANG DIGUI-133","OBJECT_ID":"2025-311F","EPOCH":"2026-07-13T21:36:57.354048","CLASSIFICATION_TYPE":"U","MEAN_MOTION":13.29324035,"ECCENTRICITY":0.0000926,"INCLINATION":50.012,"RA_OF_ASC_NODE":20.0002,"ARG_OF_PERICENTER":69.2893,"MEAN_ANOMALY":290.8078,"EPHEMERIS_TYPE":0,"NORAD_CAT_ID":67241,"ELEMENT_SET_NO":999,"REV_AT_EPOCH":2689,"BSTAR":0.000018261,"MEAN_MOTION_DOT":-0.00000116,"MEAN_MOTION_DDOT":0},{"OBJECT_NAME":"HULIANWANG DIGUI-134","OBJECT_ID":"2025-311G","EPOCH":"2026-07-13T18:12:25.352064","CLASSIFICATION_TYPE":"U","MEAN_MOTION":13.29323861,"ECCENTRICITY":0.0000941,"INCLINATION":50.0049,"RA_OF_ASC_NODE":20.4676,"ARG_OF_PERICENTER":68.205,"MEAN_ANOMALY":291.8922,"EPHEMERIS_TYPE":0,"NORAD_CAT_ID":67242,"ELEMENT_SET_NO":999,"REV_AT_EPOCH":2687,"BSTAR":0.000030948,"MEAN_MOTION_DOT":-0.0000011,"MEAN_MOTION_DDOT":0},{"OBJECT_NAME":"HULIANWANG DIGUI-135","OBJECT_ID":"2025-311H","EPOCH":"2026-07-13T18:36:29.166048","CLASSIFICATION_TYPE":"U","MEAN_MOTION":13.2932361,"ECCENTRICITY":0.0000969,"INCLINATION":50.0036,"RA_OF_ASC_NODE":20.53,"ARG_OF_PERICENTER":67.1138,"MEAN_ANOMALY":292.9837,"EPHEMERIS_TYPE":0,"NORAD_CAT_ID":67243,"ELEMENT_SET_NO":999,"REV_AT_EPOCH":2687,"BSTAR":0.000023283,"MEAN_MOTION_DOT":-0.00000113,"MEAN_MOTION_DDOT":0},{"OBJECT_NAME":"HULIANWANG DIGUI-136","OBJECT_ID":"2025-311J","EPOCH":"2026-07-13T23:13:07.457952","CLASSIFICATION_TYPE":"U","MEAN_MOTION":13.29324526,"ECCENTRICITY":0.0000867,"INCLINATION":50.0104,"RA_OF_ASC_NODE":19.6675,"ARG_OF_PERICENTER":71.9236,"MEAN_ANOMALY":288.1731,"EPHEMERIS_TYPE":0,"NORAD_CAT_ID":67244,"ELEMENT_SET_NO":999,"REV_AT_EPOCH":2690,"BSTAR":0.000056337,"MEAN_MOTION_DOT":-9.8e-7,"MEAN_MOTION_DDOT":0},{"OBJECT_NAME":"HULIANWANG DIGUI-137","OBJECT_ID":"2026-007A","EPOCH":"2026-07-13T16:39:40.680576","CLASSIFICATION_TYPE":"U","MEAN_MOTION":13.29326896,"ECCENTRICITY":0.0000903,"INCLINATION":50.0097,"RA_OF_ASC_NODE":350.7898,"ARG_OF_PERICENTER":109.2046,"MEAN_ANOMALY":250.8923,"EPHEMERIS_TYPE":0,"NORAD_CAT_ID":67435,"ELEMENT_SET_NO":999,"REV_AT_EPOCH":2431,"BSTAR":0.0000041778,"MEAN_MOTION_DOT":-0.00000122,"MEAN_MOTION_DDOT":0},{"OBJECT_NAME":"HULIANWANG DIGUI-138","OBJECT_ID":"2026-007B","EPOCH":"2026-07-13T22:28:33.251808","CLASSIFICATION_TYPE":"U","MEAN_MOTION":13.29325295,"ECCENTRICITY":0.0000901,"INCLINATION":50.0076,"RA_OF_ASC_NODE":350.0368,"ARG_OF_PERICENTER":112.2019,"MEAN_ANOMALY":247.8949,"EPHEMERIS_TYPE":0,"NORAD_CAT_ID":67436,"ELEMENT_SET_NO":999,"REV_AT_EPOCH":2434,"BSTAR":0.000018649,"MEAN_MOTION_DOT":-0.00000115,"MEAN_MOTION_DDOT":0},{"OBJECT_NAME":"HULIANWANG DIGUI-139","OBJECT_ID":"2026-007C","EPOCH":"2026-07-13T18:39:46.067328","CLASSIFICATION_TYPE":"U","MEAN_MOTION":13.29328387,"ECCENTRICITY":0.0000894,"INCLINATION":50.0048,"RA_OF_ASC_NODE":350.4884,"ARG_OF_PERICENTER":99.494,"MEAN_ANOMALY":260.6033,"EPHEMERIS_TYPE":0,"NORAD_CAT_ID":67437,"ELEMENT_SET_NO":999,"REV_AT_EPOCH":2432,"BSTAR":0.000055378,"MEAN_MOTION_DOT":-9.8e-7,"MEAN_MOTION_DDOT":0}]}
